{
  "norad_id": 67523,
  "name": "HULIANWANG DIGUI-147",
  "history": [
    {
      "epoch": "2026-03-28T20:36:57.781440Z",
      "apogee_km": 1149.4037302356837,
      "perigee_km": 1149.2254801816734,
      "latitude_deg": 3.48787495066553e-05,
      "longitude_deg": 148.36426609826444,
      "height_km": 1149.8687755212536,
      "semi_major_axis_km": 7527.451605208678,
      "eccentricity": 1.184e-05,
      "inclination_deg": 50.0043,
      "raan_deg": 283.8784,
      "arg_perigee_deg": 122.5175,
      "mean_anomaly_deg": 237.5709,
      "mean_motion_rev_day": 13.29323872
    }
  ]
}